CCSDS_OMM_VERS,COMMENT,CREATION_DATE,ORIGINATOR,OBJECT_NAME,OBJECT_ID,CENTER_NAME,REF_FRAME,TIME_SYSTEM,MEAN_ELEMENT_THEORY,EPOCH,MEAN_MOTION,ECCENTRICITY,INCLINATION,RA_OF_ASC_NODE,ARG_OF_PERICENTER,MEAN_ANOMALY,EPHEMERIS_TYPE,CLASSIFICATION_TYPE,NORAD_CAT_ID,ELEMENT_SET_NO,REV_AT_EPOCH,BSTAR,MEAN_MOTION_DOT,MEAN_MOTION_DDOT,SEMIMAJOR_AXIS,PERIOD,APOAPSIS,PERIAPSIS,OBJECT_TYPE,RCS_SIZE,COUNTRY_CODE,LAUNCH_DATE,SITE,DECAY_DATE,FILE,GP_ID,TLE_LINE0,TLE_LINE1,TLE_LINE2
2,GENERATED VIA SPACE-TRACK.ORG API,2018-05-26T22:53:40,18 SPCS,SKYNET 4D,1998-002A,EARTH,TEME,UTC,SGP4,2018-05-26T16:45:55.602144,0.99150956,0.0002564,10.8407,28.7073,58.2314,291.6269,0,U,25134,999,7425,0.0,3.6e-07,0,42481.897,1452.33,36114.654,36092.869,PAYLOAD,LARGE,UK,1998-01-10,AFETR,,2289604,120520921,0 SKYNET 4D,1 25134U 98002A   18146.69856021  .00000036  00000-0  00000+0 0  9999,2 25134  10.8407  28.7073 0002564  58.2314 291.6269  0.99150956 74251
2,GENERATED VIA SPACE-TRACK.ORG API,2018-05-27T15:36:27,18 SPCS,SKYNET 4D,1998-002A,EARTH,TEME,UTC,SGP4,2018-05-27T04:49:08.160960,0.99151053,0.0002557,10.8411,28.7035,58.3486,110.7839,0,U,25134,999,7419,0.0,4.1e-07,0,42481.869,1452.329,36114.597,36092.871,PAYLOAD,LARGE,UK,1998-01-10,AFETR,,2289865,120539122,0 SKYNET 4D,1 25134U 98002A   18147.20078890 +.00000041 +00000-0 +00000-0 0  9994,2 25134 010.8411 028.7035 0002557 058.3486 110.7839 00.99151053074193
2,GENERATED VIA SPACE-TRACK.ORG API,2018-05-27T22:28:08,18 SPCS,SKYNET 4D,1998-002A,EARTH,TEME,UTC,SGP4,2018-05-27T06:32:16.185120,0.99151067,0.0002559,10.8412,28.703,58.3365,136.3615,0,U,25134,999,7419,0.0,4.1e-07,0,42481.865,1452.329,36114.601,36092.859,PAYLOAD,LARGE,UK,1998-01-10,AFETR,,2289920,120548814,0 SKYNET 4D,1 25134U 98002A   18147.27240955 +.00000041 +00000-0 +00000-0 0  9994,2 25134 010.8412 028.7030 0002559 058.3365 136.3615 00.99151067074198
2,GENERATED VIA SPACE-TRACK.ORG API,2018-05-28T05:38:19,18 SPCS,SKYNET 4D,1998-002A,EARTH,TEME,UTC,SGP4,2018-05-27T16:52:05.928960,0.99151156,0.0002559,10.8415,28.7,58.4096,289.9356,0,U,25134,999,7419,0.0,4.4e-07,0,42481.84,1452.327,36114.576,36092.834,PAYLOAD,LARGE,UK,1998-01-10,AFETR,,2290031,120559584,0 SKYNET 4D,1 25134U 98002A   18147.70284640 +.00000044 +00000-0 +00000-0 0  9994,2 25134 010.8415 028.7000 0002559 058.4096 289.9356 00.99151156074196
2,GENERATED VIA SPACE-TRACK.ORG API,2018-05-28T22:01:57,18 SPCS,SKYNET 4D,1998-002A,EARTH,TEME,UTC,SGP4,2018-05-28T12:44:46.959648,0.99151328,0.0002565,10.8422,28.6941,58.4127,225.5821,0,U,25134,999,7420,0.0,4.9e-07,0,42481.79,1452.325,36114.552,36092.759,PAYLOAD,LARGE,UK,1998-01-10,AFETR,,2290330,120574776,0 SKYNET 4D,1 25134U 98002A   18148.53109907 +.00000049 +00000-0 +00000-0 0  9993,2 25134 010.8422 028.6941 0002565 058.4127 225.5821 00.99151328074205
2,GENERATED VIA SPACE-TRACK.ORG API,2018-05-28T23:02:16,18 SPCS,SKYNET 4D,1998-002A,EARTH,TEME,UTC,SGP4,2018-05-28T16:58:21.417312,0.99151371,0.0002564,10.8423,28.6928,58.5161,288.3364,0,U,25134,999,7427,0.0,5e-07,0,42481.778,1452.324,36114.536,36092.751,PAYLOAD,LARGE,UK,1998-01-10,AFETR,,2290386,120582014,0 SKYNET 4D,1 25134U 98002A   18148.70719233  .00000050  00000-0  00000+0 0  9992,2 25134  10.8423  28.6928 0002564  58.5161 288.3364  0.99151371 74273
2,GENERATED VIA SPACE-TRACK.ORG API,2018-05-29T22:00:43,18 SPCS,SKYNET 4D,1998-002A,EARTH,TEME,UTC,SGP4,2018-05-29T06:44:25.359648,0.99151512,0.0002562,10.8428,28.6886,58.701,132.9221,0,U,25134,999,7421,0.0,5.2e-07,0,42481.738,1452.322,36114.487,36092.719,PAYLOAD,LARGE,UK,1998-01-10,AFETR,,2290734,120603111,0 SKYNET 4D,1 25134U 98002A   18149.28084907 +.00000052 +00000-0 +00000-0 0  9992,2 25134 010.8428 028.6886 0002562 058.7010 132.9221 00.99151512074211
2,GENERATED VIA SPACE-TRACK.ORG API,2018-05-30T22:11:48,18 SPCS,SKYNET 4D,1998-002A,EARTH,TEME,UTC,SGP4,2018-05-30T07:18:07.624224,0.99151788,0.000257,10.8436,28.6811,58.8518,138.0829,0,U,25134,999,7422,0.0,5.3e-07,0,42481.659,1452.318,36114.442,36092.606,PAYLOAD,LARGE,UK,1998-01-10,AFETR,,2291110,120630959,0 SKYNET 4D,1 25134U 98002A   18150.30425491 +.00000053 +00000-0 +00000-0 0  9995,2 25134 010.8436 028.6811 0002570 058.8518 138.0829 00.99151788074228
2,GENERATED VIA SPACE-TRACK.ORG API,2018-05-31T07:06:27,18 SPCS,SKYNET 4D,1998-002A,EARTH,TEME,UTC,SGP4,2018-05-31T04:11:18.852864,0.99152077,0.0002578,10.8443,28.6748,59.059,88.5258,0,U,25134,999,7429,0.0,5e-07,0,42481.577,1452.314,36114.393,36092.49,PAYLOAD,LARGE,UK,1998-01-10,AFETR,,2291290,120648421,0 SKYNET 4D,1 25134U 98002A   18151.17452376  .00000050  00000-0  00000+0 0  9999,2 25134  10.8443  28.6748 0002578  59.0590  88.5258  0.99152077 74290
2,GENERATED VIA SPACE-TRACK.ORG API,2018-05-31T21:29:59,18 SPCS,SKYNET 4D,1998-002A,EARTH,TEME,UTC,SGP4,2018-05-31T11:57:07.662240,0.99152184,0.0002583,10.8446,28.6724,59.1795,203.8748,0,U,25134,999,7423,0.0,4.9e-07,0,42481.546,1452.312,36114.384,36092.438,PAYLOAD,LARGE,UK,1998-01-10,AFETR,,2291502,120658608,0 SKYNET 4D,1 25134U 98002A   18151.49800535 +.00000049 +00000-0 +00000-0 0  9997,2 25134 010.8446 028.6724 0002583 059.1795 203.8748 00.99152184074230
2,GENERATED VIA SPACE-TRACK.ORG API,2018-06-01T21:29:16,18 SPCS,SKYNET 4D,1998-002A,EARTH,TEME,UTC,SGP4,2018-06-01T08:49:19.464960,0.99152493,0.0002596,10.8453,28.6661,59.3768,154.0826,0,U,25134,999,7424,0.0,4.3e-07,0,42481.458,1452.308,36114.351,36092.295,PAYLOAD,LARGE,UK,1998-01-10,AFETR,,2291863,120686806,0 SKYNET 4D,1 25134U 98002A   18152.36758640 +.00000043 +00000-0 +00000-0 0  9997,2 25134 010.8453 028.6661 0002596 059.3768 154.0826 00.99152493074242
2,GENERATED VIA SPACE-TRACK.ORG API,2018-06-03T02:26:43,18 SPCS,SKYNET 4D,1998-002A,EARTH,TEME,UTC,SGP4,2018-06-02T04:30:04.749408,0.99152807,0.0002607,10.846,28.6601,59.5558,86.6001,0,U,25134,999,7431,0.0,3.6e-07,0,42481.368,1452.303,36114.308,36092.158,PAYLOAD,LARGE,UK,1998-01-10,AFETR,,2292399,120717070,0 SKYNET 4D,1 25134U 98002A   18153.18755497 +.00000036 +00000-0 +00000-0 0  9997,2 25134 010.8460 028.6601 0002607 059.5558 086.6001 00.99152807074318
2,GENERATED VIA SPACE-TRACK.ORG API,2018-06-03T05:29:29,18 SPCS,SKYNET 4D,1998-002A,EARTH,TEME,UTC,SGP4,2018-06-02T18:27:42.781824,0.99153057,0.0002612,10.8464,28.6559,59.7276,294.0702,0,U,25134,999,7425,0.0,2.9e-07,0,42481.297,1452.3,36114.258,36092.066,PAYLOAD,LARGE,UK,1998-01-10,AFETR,,2292405,120726754,0 SKYNET 4D,1 25134U 98002A   18153.76924516 +.00000029 +00000-0 +00000-0 0  9993,2 25134 010.8464 028.6559 0002612 059.7276 294.0702 00.99153057074253
2,GENERATED VIA SPACE-TRACK.ORG API,2018-06-03T21:48:26,18 SPCS,SKYNET 4D,1998-002A,EARTH,TEME,UTC,SGP4,2018-06-03T07:15:27.130176,0.99153259,0.0002628,10.8469,28.652,59.9246,124.1876,0,U,25134,999,7426,0.0,2.2e-07,0,42481.239,1452.297,36114.268,36091.94,PAYLOAD,LARGE,UK,1998-01-10,AFETR,,2292612,120741463,0 SKYNET 4D,1 25134U 98002A   18154.30239734 +.00000022 +00000-0 +00000-0 0  9998,2 25134 010.8469 028.6520 0002628 059.9246 124.1876 00.99153259074262
2,GENERATED VIA SPACE-TRACK.ORG API,2018-06-04T05:26:32,18 SPCS,SKYNET 4D,1998-002A,EARTH,TEME,UTC,SGP4,2018-06-03T19:18:26.872416,0.9915347,0.0002634,10.8473,28.6484,60.1705,303.1661,0,U,25134,999,7427,0.0,1.5e-07,0,42481.179,1452.294,36114.233,36091.854,PAYLOAD,LARGE,UK,1998-01-10,AFETR,,2292747,120754321,0 SKYNET 4D,1 25134U 98002A   18154.80447769 +.00000015 +00000-0 +00000-0 0  9994,2 25134 010.8473 028.6484 0002634 060.1705 303.1661 00.99153470074274
2,GENERATED VIA SPACE-TRACK.ORG API,2018-06-04T15:10:22,18 SPCS,SKYNET 4D,1998-002A,EARTH,TEME,UTC,SGP4,2018-06-04T08:14:03.298272,0.99153712,0.0002653,10.8477,28.6445,60.4227,135.1807,0,U,25134,999,7433,0.0,6e-08,0,42481.11,1452.29,36114.245,36091.704,PAYLOAD,LARGE,UK,1998-01-10,AFETR,,2292926,120763223,0 SKYNET 4D,1 25134U 98002A   18155.34309373  .00000006  00000-0  00000+0 0  9991,2 25134  10.8477  28.6445 0002653  60.4227 135.1807  0.99153712 74339
2,GENERATED VIA SPACE-TRACK.ORG API,2018-06-05T06:06:48,18 SPCS,SKYNET 4D,1998-002A,EARTH,TEME,UTC,SGP4,2018-06-04T19:47:42.459072,0.99153915,0.0002661,10.8481,28.641,60.7751,306.7794,0,U,25134,999,7428,0.0,-2e-08,0,42481.052,1452.287,36114.221,36091.612,PAYLOAD,LARGE,UK,1998-01-10,AFETR,,2293140,120781527,0 SKYNET 4D,1 25134U 98002A   18155.82479698 -.00000002 +00000-0 +00000-0 0  9990,2 25134 010.8481 028.6410 0002661 060.7751 306.7794 00.99153915074280
2,GENERATED VIA SPACE-TRACK.ORG API,2018-06-05T22:53:22,18 SPCS,SKYNET 4D,1998-002A,EARTH,TEME,UTC,SGP4,2018-06-05T08:03:20.300832,0.99154152,0.000268,10.8485,28.6373,60.9969,128.9155,0,U,25134,999,7428,0.0,-1.2e-07,0,42480.984,1452.284,36114.234,36091.464,PAYLOAD,LARGE,UK,1998-01-10,AFETR,,2293464,120797399,0 SKYNET 4D,1 25134U 98002A   18156.33565163 -.00000012 +00000-0 +00000-0 0  9991,2 25134 010.8485 028.6373 0002680 060.9969 128.9155 00.99154152074285
2,GENERATED VIA SPACE-TRACK.ORG API,2018-06-06T05:44:25,18 SPCS,SKYNET 4D,1998-002A,EARTH,TEME,UTC,SGP4,2018-06-05T19:30:53.047008,0.99154391,0.0002681,10.8489,28.6338,60.8648,299.4872,0,U,25134,999,7428,0.0,-2.2e-07,0,42480.916,1452.28,36114.17,36091.391,PAYLOAD,LARGE,UK,1998-01-10,AFETR,,2293512,120807365,0 SKYNET 4D,1 25134U 98002A   18156.81311397 -.00000022 +00000-0 +00000-0 0  9993,2 25134 010.8489 028.6338 0002681 060.8648 299.4872 00.99154391074289
2,GENERATED VIA SPACE-TRACK.ORG API,2018-06-06T14:53:07,18 SPCS,SKYNET 4D,1998-002A,EARTH,TEME,UTC,SGP4,2018-06-06T09:35:11.169312,0.99154649,0.0002704,10.8493,28.6295,61.164,148.4854,0,U,25134,999,7435,0.0,-3.4e-07,0,42480.842,1452.276,36114.194,36091.22,PAYLOAD,LARGE,UK,1998-01-10,AFETR,,2293734,120816864,0 SKYNET 4D,1 25134U 98002A   18157.39943483 -.00000034  00000-0  00000+0 0  9996,2 25134  10.8493  28.6295 0002704  61.1640 148.4854  0.99154649 74355
